NORAD_CAT_ID,OBJECT_NAME,OBJECT_TYPE,EPOCH,MEAN_MOTION,ECCENTRICITY,INCLINATION,RA_OF_ASC_NODE,ARG_OF_PERICENTER,MEAN_ANOMALY,BSTAR,MEAN_MOTION_DOT,MEAN_MOTION_DDOT,TLE_LINE0,TLE_LINE1,TLE_LINE2,SEMIMAJOR_AXIS,PERIOD,APOGEE,PERIGEE,DECAYED
50171.0,STARLINK-3286,PAYLOAD,2022-07-21 09:34:23,15.08824826,0.0002023,53.2177,87.5566,56.355,303.7635,-0.00030692,-5.168e-05,0.0,0 STARLINK-3286,1 50171U 21125R   22202.39887908 -.00005168  00000-0 -30692-3 0  9990,2 50171  53.2177  87.5566 0002023  56.3550 303.7635 15.08824826 35738,6917.927,95.439,541.191,538.3919999999998,0.0
50171.0,STARLINK-3286,PAYLOAD,2022-07-22 04:39:01,15.08825233,0.0001874,53.2174,83.9883,56.589,303.5281,4.2148e-05,3.82e-06,0.0,0 STARLINK-3286,1 50171U 21125R   22203.19376735  .00000382  00000-0  42148-4 0  9991,2 50171  53.2174  83.9883 0001874  56.5890 303.5281 15.08825233 36345,6917.926,95.438,541.087,538.494,0.0
50171.0,STARLINK-3286,PAYLOAD,2022-07-22 09:25:11,15.08825113,0.0001924,53.2177,83.0961,53.2682,306.8487,0.00020627,2.995e-05,0.0,0 STARLINK-3286,1 50171U 21125R   22203.39248987  .00002995  00000-0  20627-3 0  9999,2 50171  53.2177  83.0961 0001924  53.2682 306.8487 15.08825113 35884,6917.926,95.438,541.122,538.46,0.0
50171.0,STARLINK-3286,PAYLOAD,2022-07-22 18:57:30,15.0882938,0.0001884,53.2173,81.3122,54.8905,305.2263,0.0003415,5.15e-05,0.0,0 STARLINK-3286,1 50171U 21125R   22203.78993397  .00005150  00000-0  34150-3 0  9996,2 50171  53.2173  81.3122 0001884  54.8905 305.2263 15.08829380 36437,6917.913000000001,95.438,541.081,538.475,0.0
50171.0,STARLINK-3286,PAYLOAD,2022-07-23 02:54:25,15.08839879,0.0001885,53.218,79.8254,58.0233,302.0942,0.00029129,4.351e-05,0.0,0 STARLINK-3286,1 50171U 21125R   22204.12113047  .00004351  00000-0  29129-3 0  9993,2 50171  53.2180  79.8254 0001885  58.0233 302.0942 15.08839879 35997,6917.880999999999,95.438,541.05,538.442,0.0
50171.0,STARLINK-3286,PAYLOAD,2022-07-23 09:15:58,15.08852705,0.0001881,53.2178,78.6361,56.8681,303.2492,0.00066946,0.00010386,0.0,0 STARLINK-3286,1 50171U 21125R   22204.38608883  .00010386  00000-0  66946-3 0  9991,2 50171  53.2178  78.6361 0001881  56.8681 303.2492 15.08852705 36525,6917.842,95.437,541.008,538.405,0.0
50171.0,STARLINK-3286,PAYLOAD,2022-07-23 20:23:40,15.08855239,0.0001904,53.2177,76.5547,55.6355,304.4817,0.00054949,8.472e-05,0.0,0 STARLINK-3286,1 50171U 21125R   22204.84976904  .00008472  00000-0  54949-3 0  9997,2 50171  53.2177  76.5547 0001904  55.6355 304.4817 15.08855239 36594,6917.834,95.437,541.016,538.382,0.0
50171.0,STARLINK-3286,PAYLOAD,2022-07-24 02:45:12,15.08859149,0.0001903,53.218,75.3655,57.0968,303.0207,0.00043214,6.6e-05,0.0,0 STARLINK-3286,1 50171U 21125R   22205.11472534  .00006600  00000-0  43214-3 0  9992,2 50171  53.2180  75.3655 0001903  57.0968 303.0207 15.08859149 36637,6917.821999999999,95.436,541.003,538.37,0.0
50171.0,STARLINK-3286,PAYLOAD,2022-07-24 21:49:49,15.08852082,0.0001834,53.218,71.7973,55.834,304.2826,0.00045432,6.952e-05,0.0,0 STARLINK-3286,1 50171U 21125R   22205.90960320  .00006952  00000-0  45432-3 0  9998,2 50171  53.2180  71.7973 0001834  55.8340 304.2826 15.08852082 36261,6917.843000000003,95.437,540.977,538.44,0.0
50171.0,STARLINK-3286,PAYLOAD,2022-07-25 01:00:35,15.0884995,0.0001785,53.2183,71.203,54.6315,305.4844,0.00022669,3.323e-05,0.0,0 STARLINK-3286,1 50171U 21125R   22206.04208313  .00003323  00000-0  22669-3 0  9997,2 50171  53.2183  71.2030 0001785  54.6315 305.4844 15.08849950 36282,6917.85,95.437,540.95,538.48,0.0
50171.0,STARLINK-3286,PAYLOAD,2022-07-25 21:40:37,15.08833446,0.0001919,53.2185,67.3371,56.3986,303.7189,0.00029568,4.42e-05,0.0,0 STARLINK-3286,1 50171U 21125R   22206.90321042  .00004420  00000-0  29568-3 0  9991,2 50171  53.2185  67.3371 0001919  56.3986 303.7189 15.08833446 36905,6917.9,95.438,541.0930000000002,538.438,0.0
50171.0,STARLINK-3286,PAYLOAD,2022-07-26 00:51:23,15.08837838,0.0001893,53.2183,66.7424,56.3651,303.7521,2.3891e-05,9.2e-07,0.0,0 STARLINK-3286,1 50171U 21125R   22207.03568940  .00000092  00000-0  23891-4 0  9991,2 50171  53.2183  66.7424 0001893  56.3651 303.7521 15.08837838 36432,6917.887,95.438,541.062,538.442,0.0
50171.0,STARLINK-3286,PAYLOAD,2022-07-26 07:12:55,15.08843516,0.0001875,53.2183,65.553,55.7453,304.3717,0.00016505,2.34e-05,0.0,0 STARLINK-3286,1 50171U 21125R   22207.30064804  .00002340  00000-0  16505-3 0  9992,2 50171  53.2183  65.5530 0001875  55.7453 304.3717 15.08843516 36962,6917.87,95.437,541.0319999999998,538.438,0.0
50171.0,STARLINK-3286,PAYLOAD,2022-07-26 19:56:00,15.08846374,0.0001774999999999,53.2181,63.1744,56.208,303.9081,0.00023044,3.382e-05,0.0,0 STARLINK-3286,1 50171U 21125R   22207.83056712  .00003382  00000-0  23044-3 0  9992,2 50171  53.2181  63.1744 0001775  56.2080 303.9081 15.08846374 37046,6917.861,95.437,540.9540000000002,538.498,0.0
50171.0,STARLINK-3286,PAYLOAD,2022-07-27 00:42:10,15.08847895,0.000182,53.2182,62.2821,54.4243,305.6919,0.00032275,4.853e-05,0.0,0 STARLINK-3286,1 50171U 21125R   22208.02928707  .00004853  00000-0  32275-3 0  9996,2 50171  53.2182  62.2821 0001820  54.4243 305.6919 15.08847895 37076,6917.856,95.437,540.98,538.462,0.0
50171.0,STARLINK-3286,PAYLOAD,2022-07-27 18:11:24,15.08847939,0.0001786,53.218,59.011,55.1212,304.9948,0.00015733,2.217e-05,0.0,0 STARLINK-3286,1 50171U 21125R   22208.75792404  .00002217  00000-0  15733-3 0  9991,2 50171  53.2180  59.0110 0001786  55.1212 304.9948 15.08847939 37189,6917.856,95.437,540.957,538.486,0.0
50171.0,STARLINK-3286,PAYLOAD,2022-07-27 19:46:47,15.08844785,0.0001799,53.2179,58.7137,49.2768,310.838,0.00011632,1.564e-05,0.0,0 STARLINK-3286,1 50171U 21125R   22208.82416513  .00001564  00000-0  11632-3 0  9991,2 50171  53.2179  58.7137 0001799  49.2768 310.8380 15.08844785 36705,6917.866,95.437,540.975,538.486,0.0
50171.0,STARLINK-3286,PAYLOAD,2022-07-28 13:16:02,15.0884402,0.0001748,53.218,55.4424,55.4434,304.6722,5.6885e-05,6.17e-06,0.0,0 STARLINK-3286,1 50171U 21125R   22209.55280397  .00000617  00000-0  56885-4 0  9999,2 50171  53.2180  55.4424 0001748  55.4434 304.6722 15.08844020 37303,6917.868,95.437,540.942,538.524,0.0
50171.0,STARLINK-3286,PAYLOAD,2022-07-28 18:02:11,15.08845823,0.0001672,53.2178,54.5506,55.9443,304.1708,8.864700000000001e-05,1.123e-05,0.0,0 STARLINK-3286,1 50171U 21125R   22209.75152210  .00001123  00000-0  88647-4 0  9997,2 50171  53.2178  54.5506 0001672  55.9443 304.1708 15.08845823 37336,6917.863,95.437,540.884,538.571,0.0
50171.0,STARLINK-3286,PAYLOAD,2022-07-28 21:12:57,15.08846599,0.0001662,53.2177,53.9558,56.1799,303.9351,9.5297e-05,1.229e-05,0.0,0 STARLINK-3286,1 50171U 21125R   22209.88400176  .00001229  00000-0  95297-4 0  9994,2 50171  53.2177  53.9558 0001662  56.1799 303.9351 15.08846599 36860,6917.86,95.437,540.875,538.575,0.0
50171.0,STARLINK-3286,PAYLOAD,2022-07-29 13:06:49,15.08835576,0.0001708,53.2179,50.9822,56.9456,303.17,-2.490800000000001e-05,-6.84e-06,0.0,0 STARLINK-3286,1 50171U 21125R   22210.54641002 -.00000684  00000-0 -24908-4 0  9991,2 50171  53.2179  50.9822 0001708  56.9456 303.1700 15.08835576 36966,6917.894,95.438,540.94,538.577,0.0
50171.0,STARLINK-3286,PAYLOAD,2022-07-29 19:28:22,15.08835274,0.0001749,53.218,49.7927,57.413,302.7031,7.8426e-05,9.6e-06,0.0,0 STARLINK-3286,1 50171U 21125R   22210.81137169  .00000960  00000-0  78426-4 0  9994,2 50171  53.2180  49.7927 0001749  57.4130 302.7031 15.08835274 37496,6917.895,95.438,540.97,538.55,0.0
50171.0,STARLINK-3286,PAYLOAD,2022-07-30 12:57:37,15.08838228,0.0001664,53.218,46.5216,56.1334,303.9816,0.00011098,1.479e-05,0.0,0 STARLINK-3286,1 50171U 21125R   22211.54001396  .00001479  00000-0  11098-3 0  9994,2 50171  53.2180  46.5216 0001664  56.1334 303.9816 15.08838228 37609,6917.886,95.438,540.9019999999998,538.6,0.0
50171.0,STARLINK-3286,PAYLOAD,2022-07-30 20:54:32,15.08839527,0.0001633,53.2176,45.0349,56.2315,303.8832,0.00021106,3.073e-05,0.0,0 STARLINK-3286,1 50171U 21125R   22211.87121476  .00003073  00000-0  21106-3 0  9995,2 50171  53.2176  45.0349 0001633  56.2315 303.8832 15.08839527 37656,6917.882,95.438,540.877,538.617,0.0
50171.0,STARLINK-3286,PAYLOAD,2022-07-31 06:26:51,15.08843764,0.000165,53.2178,43.2508,55.7169,304.3979,0.00027309,4.061e-05,0.0,0 STARLINK-3286,1 50171U 21125R   22212.26865406  .00004061  00000-0  27309-3 0  9996,2 50171  53.2178  43.2508 0001650  55.7169 304.3979 15.08843764 37718,6917.869000000002,95.437,540.875,538.592,0.0
50171.0,STARLINK-3286,PAYLOAD,2022-07-31 19:09:56,15.08848373,0.0001671,53.2179,40.8717,56.0947,304.0204,0.00032928,4.958e-05,0.0,0 STARLINK-3286,1 50171U 21125R   22212.79857249  .00004958  00000-0  32928-3 0  9998,2 50171  53.2179  40.8717 0001671  56.0947 304.0204 15.08848373 37792,6917.855,95.437,540.876,538.564,0.0
50171.0,STARLINK-3286,PAYLOAD,2022-07-31 23:56:05,15.08851646,0.0001682,53.2179,39.9796,56.2402,303.875,0.00035272,5.332e-05,0.0,0 STARLINK-3286,1 50171U 21125R   22212.99729069  .00005332  00000-0  35272-3 0  9990,2 50171  53.2179  39.9796 0001682  56.2402 303.8750 15.08851646 37338,6917.845,95.437,540.873,538.5459999999998,0.0
50171.0,STARLINK-3286,PAYLOAD,2022-08-01 19:00:43,15.08838321,0.0001686,53.2184,36.4115,58.2661,301.8495,1.851e-05,7e-08,0.0,0 STARLINK-3286,1 50171U 21125R   22213.79217490  .00000007  00000-0  18510-4 0  9990,2 50171  53.2184  36.4115 0001686  58.2661 301.8495 15.08838321 37456,6917.886,95.438,540.9169999999998,538.5840000000002,0.0
50171.0,STARLINK-3286,PAYLOAD,2022-08-01 22:11:30,15.088370499999998,0.0001662,53.2191,35.817,58.6202,301.4953,3.0976e-05,2.05e-06,0.0,0 STARLINK-3286,1 50171U 21125R   22213.92465718  .00000205  00000-0  30976-4 0  9993,2 50171  53.2191  35.8170 0001662  58.6202 301.4953 15.08837050 37966,6917.889,95.438,540.904,538.605,0.0
